NUSAT-49 (KLARA DAN VO*)
1 60500U 24149AJ  26068.79810190  .00012912  00000+0  43568-3 0  9991
2 60500  97.3807 150.7380 0001132 286.7761  73.3356 15.30828857 86935
STARLINK-33780          
1 63459U 25069AC  26068.47499403  .00020849  00000+0  71431-3 0  9992
2 63459  53.1585 143.3268 0001213  77.6329 282.4807 15.30188672 53262
